IRIDIUM 33 DEB          
1 36012U 97051UT  26063.54658945  .00005838  00000+0  21324-2 0  9994
2 36012  86.4396 274.5050 0217593   1.6560 358.5298 14.20563471666458
IRIDIUM 33 DEB          
1 36028U 97051VK  26060.88947523  .00025841  00000+0  20734-2 0  9998
2 36028  86.3146 269.3331 0017594 119.5716 240.7272 14.99842236883092
IRIDIUM 33 DEB          
1 36080U 97051VM  26056.50340220  .00001938  00000+0  52714-3 0  9996
2 36080  86.3236 335.4170 0014825 275.8181  84.1332 14.47006283484958
IRIDIUM 33 DEB          
1 36083U 97051VQ  26063.52583405  .00003019  00000+0  88241-3 0  9999
2 36083  86.3489 358.9384 0025010 320.8537  39.0854 14.43590054866291
IRIDIUM 33 DEB          
1 36390U 97051VU  26060.28946878  .00006003  00000+0  88857-3 0  9996
2 36390  86.2859 263.3476 0027954 255.4751 104.3366 14.74753978674193
IRIDIUM 33 DEB          
1 36483U 97051VZ  26056.63614572  .00001873  00000+0  51909-3 0  9994
2 36483  86.3812  20.4101 0007000 234.8466 125.2081 14.46131522662284
IRIDIUM 33 DEB          
1 36490U 97051WG  26063.19107783  .00020016  00000+0  27231-2 0  9992
2 36490  86.3682 333.6659 0004804 100.9326 259.2436 14.78663729876879
IRIDIUM 33 DEB          
1 36493U 97051WK  26063.50145132  .00011049  00000+0  19814-2 0  9994
2 36493  86.3608 335.3291 0013086  70.4596 289.8030 14.66622153757165
IRIDIUM 33 DEB          
1 37548U 97051XH  26058.61648586  .00004301  00000+0  10559-2 0  9993
2 37548  86.3541   9.8892 0022794 300.6162  59.2795 14.52027279666479
IRIDIUM 33 DEB          
1 37550U 97051XK  26063.55116317  .00011049  00000+0  18921-2 0  9995
2 37550  86.3822 347.5836 0002650 135.2864 224.8565 14.68721034875333
IRIDIUM 33 DEB          
1 37562U 97051XX  26063.60241064  .00007179  00000+0  15712-2 0  9996
2 37562  86.3787   7.8763 0022865 184.3411 299.3973 14.57454035875202
IRIDIUM 33 DEB          
1 37565U 97051YA  26063.49992942  .00003094  00000+0  76066-3 0  9996
2 37565  86.3535 333.9657 0012964 157.2626 202.9156 14.51989989670231
IRIDIUM 33 DEB          
1 38017U 97051YD  26063.62172730  .00012854  00000+0  30165-2 0  9992
2 38017  86.3373 130.5370 0091890 189.4474 170.5009 14.51809027625893
IRIDIUM 33 DEB          
1 38022U 97051YJ  26062.50130758  .00004459  00000+0  13358-2 0  9995
2 38022  86.2717 341.0644 0045887 139.2710 221.1937 14.42035946703570
IRIDIUM 33 DEB          
1 38028U 97051YQ  26056.05542754  .00000921  00000+0  24956-3 0  9994
2 38028  86.3278 327.9721 0026047 233.9975 125.8813 14.46466531665695
IRIDIUM 33 DEB          
1 38228U 97051ZC  26062.61739645  .00001147  00000+0  45098-3 0  9993
2 38228  86.2987  14.0747 0062368 291.7038 192.3455 14.27439275859356
