[{"OBJECT_NAME":"IRIDIUM 33 DEB","OBJECT_ID":"1997-051UT","EPOCH":"2026-03-04T13:07:05.328480","MEAN_MOTION":14.20563471,"ECCENTRICITY":0.0217593,"INCLINATION":86.4396,"RA_OF_ASC_NODE":274.505,"ARG_OF_PERICENTER":1.656,"MEAN_ANOMALY":358.5298,"EPHEMERIS_TYPE":0,"CLASSIFICATION_TYPE":"U","NORAD_CAT_ID":36012,"ELEMENT_SET_NO":999,"REV_AT_EPOCH":66645,"BSTAR":0.0021324,"MEAN_MOTION_DOT":5.838e-5,"MEAN_MOTION_DDOT":0},{"OBJECT_NAME":"IRIDIUM 33 DEB","OBJECT_ID":"1997-051VK","EPOCH":"2026-03-01T21:20:50.659872","MEAN_MOTION":14.99842236,"ECCENTRICITY":0.0017594,"INCLINATION":86.3146,"RA_OF_ASC_NODE":269.3331,"ARG_OF_PERICENTER":119.5716,"MEAN_ANOMALY":240.7272,"EPHEMERIS_TYPE":0,"CLASSIFICATION_TYPE":"U","NORAD_CAT_ID":36028,"ELEMENT_SET_NO":999,"REV_AT_EPOCH":88309,"BSTAR":0.0020734,"MEAN_MOTION_DOT":0.00025841,"MEAN_MOTION_DDOT":0},{"OBJECT_NAME":"IRIDIUM 33 DEB","OBJECT_ID":"1997-051VM","EPOCH":"2026-02-25T12:04:53.950080","MEAN_MOTION":14.47006283,"ECCENTRICITY":0.00148253,"INCLINATION":86.3236,"RA_OF_ASC_NODE":335.417,"ARG_OF_PERICENTER":275.8181,"MEAN_ANOMALY":84.1332,"EPHEMERIS_TYPE":0,"CLASSIFICATION_TYPE":"U","NORAD_CAT_ID":36080,"ELEMENT_SET_NO":999,"REV_AT_EPOCH":48495,"BSTAR":0.00052714098,"MEAN_MOTION_DOT":1.938e-5,"MEAN_MOTION_DDOT":0},{"OBJECT_NAME":"IRIDIUM 33 DEB","OBJECT_ID":"1997-051VQ","EPOCH":"2026-03-04T12:37:12.061920","MEAN_MOTION":14.43590054,"ECCENTRICITY":0.002501,"INCLINATION":86.3489,"RA_OF_ASC_NODE":358.9384,"ARG_OF_PERICENTER":320.8537,"MEAN_ANOMALY":39.0854,"EPHEMERIS_TYPE":0,"CLASSIFICATION_TYPE":"U","NORAD_CAT_ID":36083,"ELEMENT_SET_NO":999,"REV_AT_EPOCH":86629,"BSTAR":0.00088241,"MEAN_MOTION_DOT":3.019e-5,"MEAN_MOTION_DDOT":0},{"OBJECT_NAME":"IRIDIUM 33 DEB","OBJECT_ID":"1997-051VU","EPOCH":"2026-03-01T06:56:50.102592","MEAN_MOTION":14.74753978,"ECCENTRICITY":0.0027954,"INCLINATION":86.2859,"RA_OF_ASC_NODE":263.3476,"ARG_OF_PERICENTER":255.4751,"MEAN_ANOMALY":104.3366,"EPHEMERIS_TYPE":0,"CLASSIFICATION_TYPE":"U","NORAD_CAT_ID":36390,"ELEMENT_SET_NO":999,"REV_AT_EPOCH":67419,"BSTAR":0.00088857,"MEAN_MOTION_DOT":6.003e-5,"MEAN_MOTION_DDOT":0},{"OBJECT_NAME":"IRIDIUM 33 DEB","OBJECT_ID":"1997-051VZ","EPOCH":"2026-02-25T15:16:02.990208","MEAN_MOTION":14.46131522,"ECCENTRICITY":0.00070006,"INCLINATION":86.3812,"RA_OF_ASC_NODE":20.4101,"ARG_OF_PERICENTER":234.8466,"MEAN_ANOMALY":125.2081,"EPHEMERIS_TYPE":0,"CLASSIFICATION_TYPE":"U","NORAD_CAT_ID":36483,"ELEMENT_SET_NO":999,"REV_AT_EPOCH":66228,"BSTAR":0.00051908604,"MEAN_MOTION_DOT":1.873e-5,"MEAN_MOTION_DDOT":0},{"OBJECT_NAME":"IRIDIUM 33 DEB","OBJECT_ID":"1997-051WG","EPOCH":"2026-03-04T04:35:09.124512","MEAN_MOTION":14.78663729,"ECCENTRICITY":0.00048041,"INCLINATION":86.3682,"RA_OF_ASC_NODE":333.6659,"ARG_OF_PERICENTER":100.9326,"MEAN_ANOMALY":259.2436,"EPHEMERIS_TYPE":0,"CLASSIFICATION_TYPE":"U","NORAD_CAT_ID":36490,"ELEMENT_SET_NO":999,"REV_AT_EPOCH":87687,"BSTAR":0.0027231289,"MEAN_MOTION_DOT":0.00020016,"MEAN_MOTION_DDOT":0},{"OBJECT_NAME":"IRIDIUM 33 DEB","OBJECT_ID":"1997-051WK","EPOCH":"2026-03-04T12:02:05.394048","MEAN_MOTION":14.66622153,"ECCENTRICITY":0.00130868,"INCLINATION":86.3608,"RA_OF_ASC_NODE":335.3291,"ARG_OF_PERICENTER":70.4596,"MEAN_ANOMALY":289.803,"EPHEMERIS_TYPE":0,"CLASSIFICATION_TYPE":"U","NORAD_CAT_ID":36493,"ELEMENT_SET_NO":999,"REV_AT_EPOCH":75716,"BSTAR":0.0019813705,"MEAN_MOTION_DOT":0.00011049,"MEAN_MOTION_DDOT":0},{"OBJECT_NAME":"IRIDIUM 33 DEB","OBJECT_ID":"1997-051XH","EPOCH":"2026-02-27T14:47:44.378304","MEAN_MOTION":14.52027279,"ECCENTRICITY":0.00227949,"INCLINATION":86.3541,"RA_OF_ASC_NODE":9.8892,"ARG_OF_PERICENTER":300.6162,"MEAN_ANOMALY":59.2795,"EPHEMERIS_TYPE":0,"CLASSIFICATION_TYPE":"U","NORAD_CAT_ID":37548,"ELEMENT_SET_NO":999,"REV_AT_EPOCH":66647,"BSTAR":0.0010559446,"MEAN_MOTION_DOT":4.301e-5,"MEAN_MOTION_DDOT":0},{"OBJECT_NAME":"IRIDIUM 33 DEB","OBJECT_ID":"1997-051XK","EPOCH":"2026-03-04T13:13:40.497888","MEAN_MOTION":14.68721034,"ECCENTRICITY":0.000265,"INCLINATION":86.3822,"RA_OF_ASC_NODE":347.5836,"ARG_OF_PERICENTER":135.2864,"MEAN_ANOMALY":224.8565,"EPHEMERIS_TYPE":0,"CLASSIFICATION_TYPE":"U","NORAD_CAT_ID":37550,"ELEMENT_SET_NO":999,"REV_AT_EPOCH":87533,"BSTAR":0.0018921,"MEAN_MOTION_DOT":0.00011049,"MEAN_MOTION_DDOT":0},{"OBJECT_NAME":"IRIDIUM 33 DEB","OBJECT_ID":"1997-051XX","EPOCH":"2026-03-04T14:27:28.279296","MEAN_MOTION":14.57454035,"ECCENTRICITY":0.0022865,"INCLINATION":86.3787,"RA_OF_ASC_NODE":7.8763,"ARG_OF_PERICENTER":184.3411,"MEAN_ANOMALY":299.3973,"EPHEMERIS_TYPE":0,"CLASSIFICATION_TYPE":"U","NORAD_CAT_ID":37562,"ELEMENT_SET_NO":999,"REV_AT_EPOCH":87520,"BSTAR":0.0015712,"MEAN_MOTION_DOT":7.179e-5,"MEAN_MOTION_DDOT":0},{"OBJECT_NAME":"IRIDIUM 33 DEB","OBJECT_ID":"1997-051YA","EPOCH":"2026-03-04T11:59:53.901888","MEAN_MOTION":14.51989989,"ECCENTRICITY":0.00129647,"INCLINATION":86.3535,"RA_OF_ASC_NODE":333.9657,"ARG_OF_PERICENTER":157.2626,"MEAN_ANOMALY":202.9156,"EPHEMERIS_TYPE":0,"CLASSIFICATION_TYPE":"U","NORAD_CAT_ID":37565,"ELEMENT_SET_NO":999,"REV_AT_EPOCH":67023,"BSTAR":0.00076066397,"MEAN_MOTION_DOT":3.094e-5,"MEAN_MOTION_DDOT":0},{"OBJECT_NAME":"IRIDIUM 33 DEB","OBJECT_ID":"1997-051YD","EPOCH":"2026-03-04T14:55:17.238720","MEAN_MOTION":14.51809027,"ECCENTRICITY":0.009189,"INCLINATION":86.3373,"RA_OF_ASC_NODE":130.537,"ARG_OF_PERICENTER":189.4474,"MEAN_ANOMALY":170.5009,"EPHEMERIS_TYPE":0,"CLASSIFICATION_TYPE":"U","NORAD_CAT_ID":38017,"ELEMENT_SET_NO":999,"REV_AT_EPOCH":62589,"BSTAR":0.0030165,"MEAN_MOTION_DOT":0.00012854,"MEAN_MOTION_DDOT":0},{"OBJECT_NAME":"IRIDIUM 33 DEB","OBJECT_ID":"1997-051YJ","EPOCH":"2026-03-03T12:01:52.974912","MEAN_MOTION":14.42035946,"ECCENTRICITY":0.00458872,"INCLINATION":86.2717,"RA_OF_ASC_NODE":341.0644,"ARG_OF_PERICENTER":139.271,"MEAN_ANOMALY":221.1937,"EPHEMERIS_TYPE":0,"CLASSIFICATION_TYPE":"U","NORAD_CAT_ID":38022,"ELEMENT_SET_NO":999,"REV_AT_EPOCH":70357,"BSTAR":0.0013358375,"MEAN_MOTION_DOT":4.459e-5,"MEAN_MOTION_DDOT":0},{"OBJECT_NAME":"IRIDIUM 33 DEB","OBJECT_ID":"1997-051YQ","EPOCH":"2026-02-25T01:19:48.939456","MEAN_MOTION":14.46466531,"ECCENTRICITY":0.0026047,"INCLINATION":86.3278,"RA_OF_ASC_NODE":327.9721,"ARG_OF_PERICENTER":233.9975,"MEAN_ANOMALY":125.8813,"EPHEMERIS_TYPE":0,"CLASSIFICATION_TYPE":"U","NORAD_CAT_ID":38028,"ELEMENT_SET_NO":999,"REV_AT_EPOCH":66569,"BSTAR":0.00024955643,"MEAN_MOTION_DOT":9.21e-6,"MEAN_MOTION_DDOT":0},{"OBJECT_NAME":"IRIDIUM 33 DEB","OBJECT_ID":"1997-051ZC","EPOCH":"2026-03-03T14:49:03.053280","MEAN_MOTION":14.27439275,"ECCENTRICITY":0.0062368,"INCLINATION":86.2987,"RA_OF_ASC_NODE":14.0747,"ARG_OF_PERICENTER":291.7038,"MEAN_ANOMALY":192.3455,"EPHEMERIS_TYPE":0,"CLASSIFICATION_TYPE":"U","NORAD_CAT_ID":38228,"ELEMENT_SET_NO":999,"REV_AT_EPOCH":85935,"BSTAR":0.00045098,"MEAN_MOTION_DOT":1.147e-5,"MEAN_MOTION_DDOT":0}]
